NORAD_CAT_ID,OBJECT_NAME,OBJECT_TYPE,EPOCH,MEAN_MOTION,ECCENTRICITY,INCLINATION,RA_OF_ASC_NODE,ARG_OF_PERICENTER,MEAN_ANOMALY,BSTAR,MEAN_MOTION_DOT,MEAN_MOTION_DDOT,TLE_LINE0,TLE_LINE1,TLE_LINE2,SEMIMAJOR_AXIS,PERIOD,APOGEE,PERIGEE,DECAYED
53263.0,STARLINK-4130,PAYLOAD,2022-08-08 14:00:01,15.73230114,0.0001641999999999,53.22,328.8528,38.1483,255.6969,-0.00022389,-0.00031964,0.0,0 STARLINK-4130,1 53263U 22086X   22220.58335648 -.00031964  00000-0 -22389-3 0  9999,2 53263  53.2200 328.8528 0001642  38.1483 255.6969 15.73230114  2998,6727.809,91.531,350.779,348.57,0.0
53263.0,STARLINK-4130,PAYLOAD,2022-08-08 20:00:01,15.73267846,0.0001653,53.2201,327.6153,30.2389,240.3592,-0.00021815,-0.00031213,0.0,0 STARLINK-4130,1 53263U 22086X   22220.83335648 -.00031213  00000-0 -21815-3 0  9997,2 53263  53.2201 327.6153 0001653  30.2389 240.3592 15.73267846  3031,6727.7019999999975,91.529,350.67900000000014,348.455,0.0
53263.0,STARLINK-4130,PAYLOAD,2022-08-08 22:00:00,15.73292719,0.0001654,53.2203,327.2025,31.673,351.1025,-0.00069981,-0.00098088,0.0,0 STARLINK-4130,1 53263U 22086X   22220.91667824 -.00098088  00000-0 -69981-3 0  9999,2 53263  53.2203 327.2025 0001654  31.6730 351.1025 15.73292719  1300,6727.630999999999,91.528,350.6090000000001,348.3830000000001,0.0
53263.0,STARLINK-4130,PAYLOAD,2022-08-09 04:00:00,15.73192936,0.0001529,53.2205,325.9639,37.7081,321.8235,8.8972e-05,0.0001188,0.0,0 STARLINK-4130,1 53263U 22086X   22221.16667824  .00011880  00000-0  88972-4 0  9992,2 53263  53.2205 325.9639 0001529  37.7081 321.8235 15.73192936  3089,6727.915,91.534,350.809,348.75199999999984,0.0
53263.0,STARLINK-4130,PAYLOAD,2022-08-09 14:00:01,15.73198725,0.0001855,53.2207,323.9041,34.8261,165.8604,-0.00078543,-0.0010942999999999,0.0,0 STARLINK-4130,1 53263U 22086X   22221.58334491 -.00109430  00000-0 -78543-3 0  9992,2 53263  53.2207 323.9041 0001855  34.8261 165.8604 15.73198725  1307,6727.899,91.533,351.01199999999994,348.516,0.0
53263.0,STARLINK-4130,PAYLOAD,2022-08-09 22:00:00,15.731380499999998,0.0001773,53.2203,322.2542,31.2602,258.3093,-8.3925e-06,-1.795e-05,0.0,0 STARLINK-4130,1 53263U 22086X   22221.91667824 -.00001795  00000-0 -83925-5 0  9995,2 53263  53.2203 322.2542 0001773  31.2602 258.3093 15.73138050  3206,6728.071999999999,91.537,351.13,348.744,0.0
53263.0,STARLINK-4130,PAYLOAD,2022-08-10 14:00:01,15.73169048,0.0001869,53.2196,318.957,32.234,75.0591,0.00022782,0.00031431,0.0,0 STARLINK-4130,1 53263U 22086X   22222.58334491  .00031431  00000-0  22782-3 0  9990,2 53263  53.2196 318.9570 0001869  32.2340  75.0591 15.73169048  1303,6727.983,91.535,351.106,348.591,0.0
53263.0,STARLINK-4130,PAYLOAD,2022-08-10 16:00:00,15.73155117,0.0001933,53.2197,318.545,31.1738,188.3484,0.00055231,0.00077463,0.0,0 STARLINK-4130,1 53263U 22086X   22222.66667824  .00077463  00000-0  55231-3 0  9998,2 53263  53.2197 318.5450 0001933  31.1738 188.3484 15.73155117  3323,6728.023,91.536,351.189,348.588,0.0
53263.0,STARLINK-4130,PAYLOAD,2022-08-10 22:00:00,15.73258607,0.0001909999999999,53.2191,317.3068,32.9698,163.22899999999996,-0.0007532,-0.00105286,0.0,0 STARLINK-4130,1 53263U 22086X   22222.91667824 -.00105286  00000-0 -75320-3 0  9994,2 53263  53.2191 317.3068 0001910  32.9698 163.2290 15.73258607  1309,6727.728,91.53,350.87800000000016,348.30800000000005,0.0
53263.0,STARLINK-4130,PAYLOAD,2022-08-11 06:00:02,15.73057237,0.0001879,53.2176,315.6497,35.4189,249.8282,0.0015472,0.00220974,0.0,0 STARLINK-4130,1 53263U 22086X   22223.25002315  .00220974  00000-0  15472-2 0  9991,2 53263  53.2176 315.6497 0001879  35.4189 249.8282 15.73057237  3418,6728.302,91.541,351.431,348.903,0.0
53263.0,STARLINK-4130,PAYLOAD,2022-08-11 14:00:01,15.73204807,0.0002195999999999,53.219,314.0089,36.9065,337.2229,0.00016219,0.00022207,0.0,0 STARLINK-4130,1 53263U 22086X   22223.58334491  .00022207  00000-0  16219-3 0  9990,2 53263  53.2190 314.0089 0002196  36.9065 337.2229 15.73204807  1302,6727.880999999999,91.533,351.224,348.269,0.0
53263.0,STARLINK-4130,PAYLOAD,2022-08-11 22:00:00,15.73242938,0.0002000999999999,53.2185,312.3585,32.6659,70.4059,-0.00061852,-0.00086703,0.0,0 STARLINK-4130,1 53263U 22086X   22223.91667824 -.00086703  00000-0 -61852-3 0  9992,2 53263  53.2185 312.3585 0002001  32.6659  70.4059 15.73242938  3525,6727.773,91.531,350.9840000000001,348.292,0.0
53263.0,STARLINK-4130,PAYLOAD,2022-08-12 04:00:00,15.73204218,0.0001799,53.2185,311.1204,31.391,48.4268,-9.2458e-05,-0.00013579,0.0,0 STARLINK-4130,1 53263U 22086X   22224.16667824 -.00013579  00000-0 -92458-4 0  9998,2 53263  53.2185 311.1204 0001799  31.3910  48.4268 15.73204218  3569,6727.8830000000025,91.533,350.958,348.538,0.0
53263.0,STARLINK-4130,PAYLOAD,2022-08-12 14:00:01,15.7319482,0.0002089999999999,53.2184,309.0611,27.0666,253.9205,0.00029576,0.00041083,0.0,0 STARLINK-4130,1 53263U 22086X   22224.58334491  .00041083  00000-0  29576-3 0  9994,2 53263  53.2184 309.0611 0002090  27.0666 253.9205 15.73194820  1302,6727.91,91.533,351.181,348.369,0.0
53263.0,STARLINK-4130,PAYLOAD,2022-08-12 20:00:01,15.7326045,0.0002101,53.2182,307.8232,27.6729,230.0715,-0.00077679,-0.00108535,0.0,0 STARLINK-4130,1 53263U 22086X   22224.83335648 -.00108535  00000-0 -77679-3 0  9992,2 53263  53.2182 307.8232 0002101  27.6729 230.0715 15.73260450  3660,6727.723000000001,91.53,351.001,348.1740000000001,0.0
53263.0,STARLINK-4130,PAYLOAD,2022-08-12 22:00:01,15.73230561,0.0002041,53.2185,307.4103,29.5735,340.4197,-0.00049096,-0.00069057,0.0,0 STARLINK-4130,1 53263U 22086X   22224.91668981 -.00069057  00000-0 -49096-3 0  9997,2 53263  53.2185 307.4103 0002041  29.5735 340.4197 15.73230561  1306,6727.808000000001,91.531,351.046,348.3,0.0
53263.0,STARLINK-4130,PAYLOAD,2022-08-13 04:00:00,15.73186404,0.0002000999999999,53.2185,306.1721,32.4975,314.1254,-0.00013934,-0.0002012,0.0,0 STARLINK-4130,1 53263U 22086X   22225.16667824 -.00020120  00000-0 -13934-3 0  9990,2 53263  53.2185 306.1721 0002001  32.4975 314.1254 15.73186404  3718,6727.934,91.534,351.145,348.45300000000015,0.0
53263.0,STARLINK-4130,PAYLOAD,2022-08-13 14:00:01,15.731305,0.0002278999999999,53.2186,304.1128,26.9772,160.7717,0.00039257,0.00054673,0.0,0 STARLINK-4130,1 53263U 22086X   22225.58334491  .00054673  00000-0  39257-3 0  9991,2 53263  53.2186 304.1128 0002279  26.9772 160.7717 15.73130500  1306,6728.093000000003,91.537,351.492,348.425,0.0
53263.0,STARLINK-4130,PAYLOAD,2022-08-13 22:00:00,15.73181839,0.0002153,53.218,302.4622,27.8032,248.8109,2.5925e-05,3.016e-05,0.0,0 STARLINK-4130,1 53263U 22086X   22225.91667824  .00003016  00000-0  25925-4 0  9990,2 53263  53.2180 302.4622 0002153  27.8032 248.8109 15.73181839  1304,6727.946999999999,91.534,351.26,348.36300000000006,0.0
53263.0,STARLINK-4130,PAYLOAD,2022-08-14 06:00:02,15.73216143,0.0002073,53.2177,300.8079,31.5001,334.0813,2.1154e-07,-5.92e-06,0.0,0 STARLINK-4130,1 53263U 22086X   22226.25002315 -.00000592  00000-0  21154-6 0  9995,2 53263  53.2177 300.8079 0002073  31.5001 334.0813 15.73216143  3889,6727.849,91.532,351.1090000000001,348.319,0.0
53263.0,STARLINK-4130,PAYLOAD,2022-08-14 14:00:01,15.73190002,0.0002244,53.2178,299.1648,22.8855,71.6357,0.00014248,0.00019414,0.0,0 STARLINK-4130,1 53263U 22086X   22226.58334491  .00019414  00000-0  14248-3 0  9999,2 53263  53.2178 299.1648 0002244  22.8855  71.6357 15.73190002  1309,6727.924,91.534,351.298,348.279,0.0
53263.0,STARLINK-4130,PAYLOAD,2022-08-14 22:00:00,15.73225876,0.000216,53.2179,297.5137,23.1454,160.3056,4.0631e-05,5.091e-05,0.0,0 STARLINK-4130,1 53263U 22086X   22226.91667824  .00005091  00000-0  40631-4 0  9997,2 53263  53.2179 297.5137 0002160  23.1454 160.3056 15.73225876  3998,6727.821,91.532,351.14,348.233,0.0
53263.0,STARLINK-4130,PAYLOAD,2022-08-15 14:00:01,15.73205261,0.0002484,53.218,294.2161,26.2661,335.0998,-0.00023056,-0.00032865,0.0,0 STARLINK-4130,1 53263U 22086X   22227.58334491 -.00032865  00000-0 -23056-3 0  9994,2 53263  53.2180 294.2161 0002484  26.2661 335.0998 15.73205261  4098,6727.88,91.533,351.416,348.074,0.0
53263.0,STARLINK-4130,PAYLOAD,2022-08-15 22:00:00,15.73178105,0.0002278,53.2177,292.5649,24.0265,66.2689,0.00020322,0.0002796999999999,0.0,0 STARLINK-4130,1 53263U 22086X   22227.91667824  .00027970  00000-0  20322-3 0  9992,2 53263  53.2177 292.5649 0002278  24.0265  66.2689 15.73178105  1300,6727.958000000001,91.534,351.355,348.29,0.0
53263.0,STARLINK-4130,PAYLOAD,2022-08-16 06:00:02,15.73241662,0.0002214,53.2177,290.9154,25.5454,153.7201,-0.00039181,-0.00055353,0.0,0 STARLINK-4130,1 53263U 22086X   22228.25002315 -.00055353  00000-0 -39181-3 0  9999,2 53263  53.2177 290.9154 0002214  25.5454 153.7201 15.73241662  4202,6727.776,91.531,351.131,348.152,0.0
53263.0,STARLINK-4130,PAYLOAD,2022-08-16 14:00:01,15.7315077,0.0002489,53.2175,289.2678,19.9719,248.1912,0.0004756999999999,0.00066536,0.0,0 STARLINK-4130,1 53263U 22086X   22228.58334491  .00066536  00000-0  47570-3 0  9992,2 53263  53.2175 289.2678 0002489  19.9719 248.1912 15.73150770  1302,6728.036,91.536,351.575,348.226,0.0
53263.0,STARLINK-4130,PAYLOAD,2022-08-16 22:00:00,15.73206062,0.0002316999999999,53.2176,287.6164,21.3756,335.6946,0.00012802,0.00017389,0.0,0 STARLINK-4130,1 53263U 22086X   22228.91667824  .00017389  00000-0  12802-3 0  9990,2 53263  53.2176 287.6164 0002317  21.3756 335.6946 15.73206062  4301,6727.878000000002,91.533,351.302,348.184,0.0
53263.0,STARLINK-4130,PAYLOAD,2022-08-17 14:00:01,15.7319001,0.0002682,53.2179,284.319,23.3856,151.5535,-0.00012564,-0.00018212,0.0,0 STARLINK-4130,1 53263U 22086X   22229.58334491 -.00018212  00000-0 -12564-3 0  9998,2 53263  53.2179 284.3190 0002682  23.3856 151.5535 15.73190010  4411,6727.924,91.534,351.593,347.9840000000001,0.0
53263.0,STARLINK-4130,PAYLOAD,2022-08-18 14:00:01,15.73214092,0.0002708,53.2174,279.3708,21.8439,59.8727,0.00062873,0.00088617,0.0,0 STARLINK-4130,1 53263U 22086X   22230.58334491  .00088617  00000-0  62873-3 0  9992,2 53263  53.2174 279.3708 0002708  21.8439  59.8727 15.73214092  1309,6727.855,91.532,351.542,347.898,0.0
